start=new Date('2022-09-05T00:00:00.000Z').valueOf();
sats=[{"LAUNCH_DATE":"2021-04-29","SITE":"AFETR","PERIOD":"95.591","ECCENTRICITY":"0.00015460","EPOCH":"2022-09-04T19:32:10.704192","INCLINATION":"53.0545","RA_OF_ASC_NODE":"96.1624","TIME_SYSTEM":"UTC","MEAN_ANOMALY":"269.8567","ARG_OF_PERICENTER":"90.2599","ELEMENT_SET_NO":"999","MEAN_MOTION":"15.06419139","MEAN_MOTION_DOT":"0.00005617","EPHEMERIS_TYPE":"0","BSTAR":"0.00039546000000","MEAN_MOTION_DDOT":"0.0000000000000","TLE_LINE2":"2 48324  53.0545  96.1624 0001546  90.2599 269.8567 15.06419139 74815","REV_AT_EPOCH":"7481","RCS_SIZE":"LARGE","SEMIMAJOR_AXIS":"6925.290","REF_FRAME":"TEME","MEAN_ELEMENT_THEORY":"SGP4","PERIAPSIS":"546.084","CLASSIFICATION_TYPE":"U","OBJECT_ID":"2021-036BA","COUNTRY_CODE":"US","APOAPSIS":"548.226","FILE":"3558394","GP_ID":"211750689","OBJECT_TYPE":"PAYLOAD","TLE_LINE1":"1 48324U 21036BA  22247.81401278  .00005617  00000-0  39546-3 0  9990","OBJECT_NAME":"STARLINK-2527","CENTER_NAME":"EARTH","DECAY_DATE":null,"NORAD_CAT_ID":"48324"},{"GP_ID":"211750937","FILE":"3558394","APOAPSIS":"548.273","COUNTRY_CODE":"US","OBJECT_ID":"2021-036BB","NORAD_CAT_ID":"48325","DECAY_DATE":null,"TLE_LINE1":"1 48325U 21036BB  22247.81127230  .00001145  00000-0  95752-4 0  9998","OBJECT_TYPE":"PAYLOAD","CENTER_NAME":"EARTH","OBJECT_NAME":"STARLINK-2495","REV_AT_EPOCH":"7482","TLE_LINE2":"2 48325  53.0556  96.2098 0001521  80.0525 280.0636 15.06398083 74820","BSTAR":"0.00009575200000","MEAN_MOTION_DDOT":"0.0000000000000","EPHEMERIS_TYPE":"0","ELEMENT_SET_NO":"999","MEAN_MOTION_DOT":"0.00001145","MEAN_MOTION":"15.06398083","PERIAPSIS":"546.166","CLASSIFICATION_TYPE":"U","MEAN_ELEMENT_THEORY":"SGP4","REF_FRAME":"TEME","SEMIMAJOR_AXIS":"6925.354","RCS_SIZE":"LARGE","MEAN_ANOMALY":"280.0636","TIME_SYSTEM":"UTC","RA_OF_ASC_NODE":"96.2098","ARG_OF_PERICENTER":"80.0525","PERIOD":"95.592","SITE":"AFETR","LAUNCH_DATE":"2021-04-29","INCLINATION":"53.0556","ECCENTRICITY":"0.00015210","EPOCH":"2022-09-04T19:28:13.926720"},{"BSTAR":"0.00005748800000","MEAN_MOTION_DDOT":"0.0000000000000","REV_AT_EPOCH":"7482","TLE_LINE2":"2 48326  53.0550  96.2235 0001220  88.6456 271.4673 15.06397726 74829","EPHEMERIS_TYPE":"0","MEAN_MOTION":"15.06397726","ELEMENT_SET_NO":"999","MEAN_MOTION_DOT":"0.00000575","MEAN_ELEMENT_THEORY":"SGP4","CLASSIFICATION_TYPE":"U","PERIAPSIS":"546.376","SEMIMAJOR_AXIS":"6925.356","REF_FRAME":"TEME","RCS_SIZE":"MEDIUM","FILE":"3558394","GP_ID":"211751174","COUNTRY_CODE":"US","APOAPSIS":"548.065","OBJECT_ID":"2021-036BC","NORAD_CAT_ID":"48326","DECAY_DATE":null,"TLE_LINE1":"1 48326U 21036BC  22247.80759069  .00000575  00000-0  57488-4 0  9999","OBJECT_TYPE":"PAYLOAD","OBJECT_NAME":"STARLINK-2498","CENTER_NAME":"EARTH","PERIOD":"95.592","SITE":"AFETR","LAUNCH_DATE":"2021-04-29","ECCENTRICITY":"0.00012200","EPOCH":"2022-09-04T19:22:55.835616","INCLINATION":"53.0550","TIME_SYSTEM":"UTC","MEAN_ANOMALY":"271.4673","RA_OF_ASC_NODE":"96.2235","ARG_OF_PERICENTER":"88.6456"},{"MEAN_MOTION":"15.06412769","ELEMENT_SET_NO":"999","MEAN_MOTION_DOT":"0.00000735","EPHEMERIS_TYPE":"0","MEAN_MOTION_DDOT":"0.0000000000000","BSTAR":"0.00006819600000","TLE_LINE2":"2 48327  53.0568  96.2346 0001331 102.6762 257.4376 15.06412769 74821","REV_AT_EPOCH":"7482","RCS_SIZE":"LARGE","SEMIMAJOR_AXIS":"6925.309","REF_FRAME":"TEME","MEAN_ELEMENT_THEORY":"SGP4","CLASSIFICATION_TYPE":"U","PERIAPSIS":"546.253","OBJECT_ID":"2021-036BD","COUNTRY_CODE":"US","APOAPSIS":"548.096","FILE":"3558394","GP_ID":"211751429","TLE_LINE1":"1 48327U 21036BD  22247.80389625  .00000735  00000-0  68196-4 0  9993","OBJECT_NAME":"STARLINK-2502","OBJECT_TYPE":"PAYLOAD","CENTER_NAME":"EARTH","DECAY_DATE":null,"NORAD_CAT_ID":"48327","LAUNCH_DATE":"2021-04-29","SITE":"AFETR","PERIOD":"95.591","ECCENTRICITY":"0.00013310","EPOCH":"2022-09-04T19:17:36.636000","INCLINATION":"53.0568","RA_OF_ASC_NODE":"96.2346","TIME_SYSTEM":"UTC","MEAN_ANOMALY":"257.4376","ARG_OF_PERICENTER":"102.6762"},{"SEMIMAJOR_AXIS":"6925.324","REF_FRAME":"TEME","MEAN_ELEMENT_THEORY":"SGP4","PERIAPSIS":"546.269","CLASSIFICATION_TYPE":"U","RCS_SIZE":"LARGE","EPHEMERIS_TYPE":"0","BSTAR":"0.00013649000000","MEAN_MOTION_DDOT":"0.0000000000000","REV_AT_EPOCH":"7483","TLE_LINE2":"2 48328  53.0560  95.9553 0001329  83.4610 276.6531 15.06408007 74832","MEAN_MOTION_DOT":"0.00001753","MEAN_MOTION":"15.06408007","ELEMENT_SET_NO":"999","DECAY_DATE":null,"NORAD_CAT_ID":"48328","OBJECT_TYPE":"PAYLOAD","TLE_LINE1":"1 48328U 21036BE  22247.86561260  .00001753  00000-0  13649-3 0  9990","OBJECT_NAME":"STARLINK-2504","CENTER_NAME":"EARTH","FILE":"3558394","GP_ID":"211750189","OBJECT_ID":"2021-036BE","COUNTRY_CODE":"US","APOAPSIS":"548.109","ECCENTRICITY":"0.00013290","EPOCH":"2022-09-04T20:46:28.928640","INCLINATION":"53.0560","SITE":"AFETR","PERIOD":"95.592","LAUNCH_DATE":"2021-04-29","ARG_OF_PERICENTER":"83.4610","MEAN_ANOMALY":"276.6531","TIME_SYSTEM":"UTC","RA_OF_ASC_NODE":"95.9553"},{"REF_FRAME":"TEME","SEMIMAJOR_AXIS":"6925.334","PERIAPSIS":"546.030","CLASSIFICATION_TYPE":"U","MEAN_ELEMENT_THEORY":"SGP4","RCS_SIZE":"LARGE","EPHEMERIS_TYPE":"0","TLE_LINE2":"2 48329  53.0541  95.9661 0001687  66.5544 293.5622 15.06404897 74839","REV_AT_EPOCH":"7483","MEAN_MOTION_DDOT":"0.0000000000000","BSTAR":"0.00016462000000","MEAN_MOTION":"15.06404897","ELEMENT_SET_NO":"999","MEAN_MOTION_DOT":"0.00002172","DECAY_DATE":null,"NORAD_CAT_ID":"48329","OBJECT_NAME":"STARLINK-2510","TLE_LINE1":"1 48329U 21036BF  22247.86287448  .00002172  00000-0  16462-3 0  9996","OBJECT_TYPE":"PAYLOAD","CENTER_NAME":"EARTH","GP_ID":"211750437","FILE":"3558394","OBJECT_ID":"2021-036BF","APOAPSIS":"548.367","COUNTRY_CODE":"US","INCLINATION":"53.0541","EPOCH":"2022-09-04T20:42:32.355072","ECCENTRICITY":"0.00016870","SITE":"AFETR","PERIOD":"95.592","LAUNCH_DATE":"2021-04-29","ARG_OF_PERICENTER":"66.5544","MEAN_ANOMALY":"293.5622","TIME_SYSTEM":"UTC","RA_OF_ASC_NODE":"95.9661"},{"MEAN_ELEMENT_THEORY":"SGP4","PERIAPSIS":"546.315","CLASSIFICATION_TYPE":"U","SEMIMAJOR_AXIS":"6925.309","REF_FRAME":"TEME","RCS_SIZE":"LARGE","BSTAR":"0.00028957000000","MEAN_MOTION_DDOT":"0.0000000000000","REV_AT_EPOCH":"7482","TLE_LINE2":"2 48330  53.0541  96.2830 0001240  86.2937 273.8194 15.06412993 74823","EPHEMERIS_TYPE":"0","ELEMENT_SET_NO":"999","MEAN_MOTION":"15.06412993","MEAN_MOTION_DOT":"0.00004036","NORAD_CAT_ID":"48330","DECAY_DATE":null,"CENTER_NAME":"EARTH","TLE_LINE1":"1 48330U 21036BG  22247.79284310  .00004036  00000-0  28957-3 0  9998","OBJECT_TYPE":"PAYLOAD","OBJECT_NAME":"STARLINK-2501","FILE":"3558394","GP_ID":"211751675","COUNTRY_CODE":"US","APOAPSIS":"548.032","OBJECT_ID":"2021-036BG","ECCENTRICITY":"0.00012400","EPOCH":"2022-09-04T19:01:41.643840","INCLINATION":"53.0541","PERIOD":"95.591","SITE":"AFETR","LAUNCH_DATE":"2021-04-29","ARG_OF_PERICENTER":"86.2937","TIME_SYSTEM":"UTC","MEAN_ANOMALY":"273.8194","RA_OF_ASC_NODE":"96.2830"},{"ARG_OF_PERICENTER":"68.1434","RA_OF_ASC_NODE":"97.1927","MEAN_ANOMALY":"291.9771","TIME_SYSTEM":"UTC","ECCENTRICITY":"0.00020340","EPOCH":"2022-09-04T14:09:45.985248","INCLINATION":"53.0550","LAUNCH_DATE":"2021-04-29","PERIOD":"95.592","SITE":"AFETR","TLE_LINE1":"1 48331U 21036BH  22247.59011557  .00001375  00000-0  11121-3 0  9996","OBJECT_TYPE":"PAYLOAD","CENTER_NAME":"EARTH","OBJECT_NAME":"STARLINK-2514","NORAD_CAT_ID":"48331","DECAY_DATE":null,"COUNTRY_CODE":"US","APOAPSIS":"548.600","OBJECT_ID":"2021-036BH","FILE":"3558394","GP_ID":"211751930","RCS_SIZE":"LARGE","MEAN_ELEMENT_THEORY":"SGP4","CLASSIFICATION_TYPE":"U","PERIAPSIS":"545.783","SEMIMAJOR_AXIS":"6925.327","REF_FRAME":"TEME","MEAN_MOTION_DOT":"0.00001375","MEAN_MOTION":"15.06407148","ELEMENT_SET_NO":"999","BSTAR":"0.00011121000000","MEAN_MOTION_DDOT":"0.0000000000000","REV_AT_EPOCH":"7479","TLE_LINE2":"2 48331  53.0550  97.1927 0002034  68.1434 291.9771 15.06407148 74798","EPHEMERIS_TYPE":"0"},{"RA_OF_ASC_NODE":"96.2865","TIME_SYSTEM":"UTC","MEAN_ANOMALY":"284.1864","ARG_OF_PERICENTER":"75.9304","LAUNCH_DATE":"2021-04-29","SITE":"AFETR","PERIOD":"95.591","ECCENTRICITY":"0.00016140","EPOCH":"2022-09-04T18:55:01.317216","INCLINATION":"53.0531","OBJECT_ID":"2021-036BJ","COUNTRY_CODE":"US","APOAPSIS":"548.294","FILE":"3558394","GP_ID":"211750690","CENTER_NAME":"EARTH","TLE_LINE1":"1 48332U 21036BJ  22247.78820969  .00001578  00000-0  12480-3 0  9997","OBJECT_TYPE":"PAYLOAD","OBJECT_NAME":"STARLINK-2511","DECAY_DATE":null,"NORAD_CAT_ID":"48332","MEAN_MOTION_DOT":"0.00001578","ELEMENT_SET_NO":"999","MEAN_MOTION":"15.06412197","EPHEMERIS_TYPE":"0","BSTAR":"0.00012480000000","MEAN_MOTION_DDOT":"0.0000000000000","TLE_LINE2":"2 48332  53.0531  96.2865 0001614  75.9304 284.1864 15.06412197 74825","REV_AT_EPOCH":"7482","RCS_SIZE":"LARGE","SEMIMAJOR_AXIS":"6925.311","REF_FRAME":"TEME","MEAN_ELEMENT_THEORY":"SGP4","PERIAPSIS":"546.058","CLASSIFICATION_TYPE":"U"},{"OBJECT_ID":"2021-036BK","APOAPSIS":"548.088","COUNTRY_CODE":"US","GP_ID":"211750938","FILE":"3558394","TLE_LINE1":"1 48333U 21036BK  22247.58274520  .00004750  00000-0  33741-3 0  9990","OBJECT_NAME":"STARLINK-2518","OBJECT_TYPE":"PAYLOAD","CENTER_NAME":"EARTH","DECAY_DATE":null,"NORAD_CAT_ID":"48333","MEAN_MOTION_DOT":"0.00004750","ELEMENT_SET_NO":"999","MEAN_MOTION":"15.06415923","EPHEMERIS_TYPE":"0","REV_AT_EPOCH":"7479","TLE_LINE2":"2 48333  53.0553  97.2123 0001333  80.2394 279.8746 15.06415923 74790","MEAN_MOTION_DDOT":"0.0000000000000","BSTAR":"0.00033741000000","RCS_SIZE":"LARGE","REF_FRAME":"TEME","SEMIMAJOR_AXIS":"6925.300","CLASSIFICATION_TYPE":"U","PERIAPSIS":"546.242","MEAN_ELEMENT_THEORY":"SGP4","RA_OF_ASC_NODE":"97.2123","MEAN_ANOMALY":"279.8746","TIME_SYSTEM":"UTC","ARG_OF_PERICENTER":"80.2394","LAUNCH_DATE":"2021-04-29","SITE":"AFETR","PERIOD":"95.591","INCLINATION":"53.0553","ECCENTRICITY":"0.00013330","EPOCH":"2022-09-04T13:59:09.185280"}];
